NORAD_CAT_ID,OBJECT_NAME,OBJECT_TYPE,EPOCH,MEAN_MOTION,ECCENTRICITY,INCLINATION,RA_OF_ASC_NODE,ARG_OF_PERICENTER,MEAN_ANOMALY,BSTAR,MEAN_MOTION_DOT,MEAN_MOTION_DDOT,TLE_LINE0,TLE_LINE1,TLE_LINE2,SEMIMAJOR_AXIS,PERIOD,APOGEE,PERIGEE,DECAYED
53417.0,STARLINK-4484,PAYLOAD,2024-04-16 21:01:48,15.08805511,0.0001248,53.217,339.7929,88.1771,271.9364,-0.00037992,-6.323e-05,0.0,0 STARLINK-4484,1 53417U 22097AF  24107.87626011 -.00006323  00000-0 -37992-3 0  9994,2 53417  53.2170 339.7929 0001248  88.1771 271.9364 15.08805511 93726,6917.986,95.44,540.714,538.987,0.0
53417.0,STARLINK-4484,PAYLOAD,2024-04-17 19:17:11,15.08838194,0.0001481,53.2203,335.6317,110.1013,250.0139,4.1023e-05,3.65e-06,0.0,0 STARLINK-4484,1 53417U 22097AF  24108.80360928  .00000365  00000-0  41023-4 0  9999,2 53417  53.2203 335.6317 0001481 110.1013 250.0139 15.08838194 93869,6917.886,95.438,540.775,538.726,0.0
53417.0,STARLINK-4484,PAYLOAD,2024-04-17 20:52:35,15.08839296,0.0001473,53.22,335.3342,96.8615,263.2545,7.5526e-05,9.14e-06,0.0,0 STARLINK-4484,1 53417U 22097AF  24108.86985006  .00000914  00000-0  75526-4 0  9990,2 53417  53.2200 335.3342 0001473  96.8615 263.2545 15.08839296 94334,6917.883,95.438,540.767,538.729,0.0
53417.0,STARLINK-4484,PAYLOAD,2024-04-18 00:03:21,15.08835747,0.0001415,53.2193,334.7391,94.7667,265.3487,0.00016321,2.31e-05,0.0,0 STARLINK-4484,1 53417U 22097AF  24109.00233263  .00002310  00000-0  16321-3 0  9997,2 53417  53.2193 334.7391 0001415  94.7667 265.3487 15.08835747 94359,6917.893,95.438,540.737,538.78,0.0
53417.0,STARLINK-4484,PAYLOAD,2024-04-18 20:43:22,15.08845066,0.0001219,53.2167,330.8703,104.5026,255.6102,0.00039034,5.931e-05,0.0,0 STARLINK-4484,1 53417U 22097AF  24109.86345216  .00005931  00000-0  39034-3 0  9991,2 53417  53.2167 330.8703 0001219 104.5026 255.6102 15.08845066 94020,6917.865,95.437,540.573,538.887,0.0
53417.0,STARLINK-4484,PAYLOAD,2024-04-18 23:54:08,15.08855073,0.0001087,53.2168,330.276,94.3407,265.7709,0.00015276,2.145e-05,0.0,0 STARLINK-4484,1 53417U 22097AF  24109.99592673  .00002145  00000-0  15276-3 0  9992,2 53417  53.2168 330.2760 0001087  94.3407 265.7709 15.08855073 94046,6917.834,95.437,540.451,538.947,0.0
53417.0,STARLINK-4484,PAYLOAD,2024-04-19 20:34:08,15.08852198,0.0001415,53.2169,326.4139,74.7274,285.3875,0.00024535,3.62e-05,0.0,0 STARLINK-4484,1 53417U 22097AF  24110.85704774  .00003620  00000-0  24535-3 0  9993,2 53417  53.2169 326.4139 0001415  74.7274 285.3875 15.08852198 94174,6917.843,95.437,540.687,538.729,0.0
53417.0,STARLINK-4484,PAYLOAD,2024-04-19 22:09:31,15.08855627,0.0001548,53.2181,326.1161,74.1594,285.9569,0.0002883,4.305e-05,0.0,0 STARLINK-4484,1 53417U 22097AF  24110.92328642  .00004305  00000-0  28830-3 0  9990,2 53417  53.2181 326.1161 0001548  74.1594 285.9569 15.08855627 94644,6917.833,95.437,540.769,538.627,0.0
53417.0,STARLINK-4484,PAYLOAD,2024-04-19 23:44:54,15.08861718,0.0001345,53.2181,325.8138,87.8052,272.3094,0.00040596,6.183e-05,0.0,0 STARLINK-4484,1 53417U 22097AF  24110.98952225  .00006183  00000-0  40596-3 0  9995,2 53417  53.2181 325.8138 0001345  87.8052 272.3094 15.08861718 94190,6917.814,95.436,540.609,538.749,0.0
53417.0,STARLINK-4484,PAYLOAD,2024-04-20 14:03:21,15.0888233,0.00013,53.2181,323.1374,89.6303,270.4838,0.00070048,0.00010891,0.0,0 STARLINK-4484,1 53417U 22097AF  24111.58566612  .00010891  00000-0  70048-3 0  9999,2 53417  53.2181 323.1374 0001300  89.6303 270.4838 15.08882330 94742,6917.751,95.435,540.515,538.717,0.0
53417.0,STARLINK-4484,PAYLOAD,2024-04-20 20:24:54,15.0884468,0.0001703,53.2174,321.9533,54.781,305.3341,-0.00045468,-7.518e-05,0.0,0 STARLINK-4484,1 53417U 22097AF  24111.85063121 -.00007518  00000-0 -45468-3 0  9998,2 53417  53.2174 321.9533 0001703  54.7810 305.3341 15.08844680 94327,6917.866,95.437,540.909,538.553,0.0
53417.0,STARLINK-4484,PAYLOAD,2024-04-20 23:35:41,15.08831729,0.0002272,53.216,321.3663,46.9076,313.2106,-0.00095359,-0.0001543,0.0,0 STARLINK-4484,1 53417U 22097AF  24111.98311557 -.00015430  00000-0 -95359-3 0  9997,2 53417  53.2160 321.3663 0002272  46.9076 313.2106 15.08831729 94348,6917.906,95.438,541.342,538.199,0.0
53417.0,STARLINK-4484,PAYLOAD,2024-04-21 13:54:10,15.08826635,0.0001201,53.2165,318.6845,78.8041,281.3086,-0.00041015,-6.807e-05,0.0,0 STARLINK-4484,1 53417U 22097AF  24112.57928477 -.00006807  00000-0 -41015-3 0  9996,2 53417  53.2165 318.6845 0001201  78.8041 281.3086 15.08826635 94893,6917.921,95.438,540.617,538.955,0.0
53417.0,STARLINK-4484,PAYLOAD,2024-04-21 20:15:42,15.08840878,0.0001382,53.2176,317.4893,100.6325,259.4823,0.00042817,6.533e-05,0.0,0 STARLINK-4484,1 53417U 22097AF  24112.84424321  .00006533  00000-0  42817-3 0  9990,2 53417  53.2176 317.4893 0001382 100.6325 259.4823 15.08840878 94478,6917.878,95.437,540.699,538.787,0.0
53417.0,STARLINK-4484,PAYLOAD,2024-04-21 23:26:29,15.08840311,0.0001546,53.2172,316.8962,90.1101,270.0068,0.0013944,0.00021974,0.0,0 STARLINK-4484,1 53417U 22097AF  24112.97672766  .00021974  00000-0  13944-2 0  9996,2 53417  53.2172 316.8962 0001546  90.1101 270.0068 15.08840311 94956,6917.879,95.438,540.814,538.675,0.0
53417.0,STARLINK-4484,PAYLOAD,2024-04-22 20:06:30,15.08831663,0.0001564,53.2175,313.0264,104.2954,255.8212,0.00022189,3.244e-05,0.0,0 STARLINK-4484,1 53417U 22097AF  24113.83785411  .00003244  00000-0  22189-3 0  9996,2 53417  53.2175 313.0264 0001564 104.2954 255.8212 15.08831663 94622,6917.906,95.438,540.853,538.689,0.0
53417.0,STARLINK-4484,PAYLOAD,2024-04-23 18:21:54,15.08840233,0.0001374,53.2162,308.8601,98.0189,262.0959,0.00016507,2.34e-05,0.0,0 STARLINK-4484,1 53417U 22097AF  24114.76521387  .00002340  00000-0  16507-3 0  9992,2 53417  53.2162 308.8601 0001374  98.0189 262.0959 15.08840233 95222,6917.88,95.438,540.695,538.794,0.0
53417.0,STARLINK-4484,PAYLOAD,2024-04-24 19:48:04,15.08844017,0.0001356,53.2164,304.1072,84.0295,276.0852,0.00017627,2.519e-05,0.0,0 STARLINK-4484,1 53417U 22097AF  24115.82505370  .00002519  00000-0  17627-3 0  9996,2 53417  53.2164 304.1072 0001356  84.0295 276.0852 15.08844017 94925,6917.868,95.437,540.671,538.795,0.0
53417.0,STARLINK-4484,PAYLOAD,2024-04-24 21:23:27,15.08845994,0.0001366,53.2163,303.8096,75.4729,284.6414,0.00020375,2.957e-05,0.0,0 STARLINK-4484,1 53417U 22097AF  24115.89129309  .00002957  00000-0  20375-3 0  9997,2 53417  53.2163 303.8096 0001366  75.4729 284.6414 15.08845994 95399,6917.862,95.437,540.672,538.782,0.0
53417.0,STARLINK-4484,PAYLOAD,2024-04-25 11:41:56,15.08835891,0.0001431,53.2165,301.1408,80.5078,279.6075,0.00037384,5.666e-05,0.0,0 STARLINK-4484,1 53417U 22097AF  24116.48745711  .00005666  00000-0  37384-3 0  9992,2 53417  53.2165 301.1408 0001431  80.5078 279.6075 15.08835891 95028,6917.893,95.438,540.748,538.768,0.0
53417.0,STARLINK-4484,PAYLOAD,2024-04-25 16:28:05,15.08837694,0.0001458,53.217,300.2436,75.43,284.6854,2.0126e-05,3.2e-07,0.0,0 STARLINK-4484,1 53417U 22097AF  24116.68617781  .00000032  00000-0  20126-4 0  9998,2 53417  53.2170 300.2436 0001458  75.4300 284.6854 15.08837694 95513,6917.887,95.438,540.761,538.744,0.0
53417.0,STARLINK-4484,PAYLOAD,2024-04-26 16:18:52,15.08840526,0.0001576,53.2182,295.7833,72.2404,287.876,7.6367e-05,9.28e-06,0.0,0 STARLINK-4484,1 53417U 22097AF  24117.67977786  .00000928  00000-0  76367-4 0  9994,2 53417  53.2182 295.7833 0001576  72.2404 287.8760 15.08840526 95201,6917.879,95.438,540.834,538.654,0.0
53417.0,STARLINK-4484,PAYLOAD,2024-04-27 05:01:56,15.08861661,0.0001625,53.2179,293.4028,69.023,291.0936,0.00034294,5.177e-05,0.0,0 STARLINK-4484,1 53417U 22097AF  24118.20968560  .00005177  00000-0  34294-3 0  9997,2 53417  53.2179 293.4028 0001625  69.0230 291.0936 15.08861661 95287,6917.814,95.436,540.803,538.555,0.0
53417.0,STARLINK-4484,PAYLOAD,2024-04-27 11:23:30,15.08837053,0.0002109,53.2172,292.2154,79.588,280.535,9.7814e-05,1.269e-05,0.0,0 STARLINK-4484,1 53417U 22097AF  24118.47465898  .00001269  00000-0  97814-4 0  9998,2 53417  53.2172 292.2154 0002109  79.5880 280.5350 15.08837053 95328,6917.889,95.438,541.213,538.295,0.0
53417.0,STARLINK-4484,PAYLOAD,2024-04-27 17:45:03,15.08831572,0.0001253,53.2163,291.0261,78.0414,282.0718,1.7054e-05,-1.6e-07,0.0,0 STARLINK-4484,1 53417U 22097AF  24118.73962043 -.00000016  00000-0  17054-4 0  9999,2 53417  53.2163 291.0261 0001253  78.0414 282.0718 15.08831572 95820,6917.906,95.438,540.638,538.904,0.0
53417.0,STARLINK-4484,PAYLOAD,2024-04-28 11:14:17,15.08845631,0.0002331,53.2168,287.754,84.1026,276.0231,0.0001252,1.705e-05,0.0,0 STARLINK-4484,1 53417U 22097AF  24119.46825697  .00001705  00000-0  12520-3 0  9990,2 53417  53.2168 287.7540 0002331  84.1026 276.0231 15.08845631 95938,6917.863,95.437,541.341,538.116,0.0
53417.0,STARLINK-4484,PAYLOAD,2024-04-28 20:46:36,15.0883599,0.0001632,53.2174,285.968,91.3902,268.7278,-1.2186e-05,-4.82e-06,0.0,0 STARLINK-4484,1 53417U 22097AF  24119.86569960 -.00000482  00000-0 -12186-4 0  9994,2 53417  53.2174 285.9680 0001632  91.3902 268.7278 15.08835990 95538,6917.893,95.438,540.887,538.629,0.0
53417.0,STARLINK-4484,PAYLOAD,2024-04-29 14:15:51,15.08834255,0.0001573,53.2184,282.7,82.0552,278.0619,0.00022337,3.268e-05,0.0,0 STARLINK-4484,1 53417U 22097AF  24120.59434444  .00003268  00000-0  22337-3 0  9995,2 53417  53.2184 282.7000 0001573  82.0552 278.0619 15.08834255 96102,6917.898,95.438,540.851,538.675,0.0
53417.0,STARLINK-4484,PAYLOAD,2024-04-29 17:26:37,15.0883636,0.0001692,53.2171,282.1052,83.4138,276.7047,0.00018859,2.714e-05,0.0,0 STARLINK-4484,1 53417U 22097AF  24120.72682379  .00002714  00000-0  18859-3 0  9991,2 53417  53.2171 282.1052 0001692  83.4138 276.7047 15.08836360 96127,6917.892,95.438,540.927,538.586,0.0
53417.0,STARLINK-4484,PAYLOAD,2024-04-30 14:06:38,15.08840398,0.0001647,53.2175,278.2403,84.4814,275.6366,0.00019392,2.8e-05,0.0,0 STARLINK-4484,1 53417U 22097AF  24121.58794335  .00002800  00000-0  19392-3 0  9991,2 53417  53.2175 278.2403 0001647  84.4814 275.6366 15.08840398 96251,6917.879,95.438,540.884,538.605,0.0
